NORAD_CAT_ID,OBJECT_NAME,OBJECT_TYPE,EPOCH,MEAN_MOTION,ECCENTRICITY,INCLINATION,RA_OF_ASC_NODE,ARG_OF_PERICENTER,MEAN_ANOMALY,BSTAR,MEAN_MOTION_DOT,MEAN_MOTION_DDOT,TLE_LINE0,TLE_LINE1,TLE_LINE2,SEMIMAJOR_AXIS,PERIOD,APOGEE,PERIGEE,DECAYED
52607.0,STARLINK-3947,PAYLOAD,2022-12-26 17:51:55,15.08834766,0.0002399,53.2174,131.717,53.2799,306.8414,3.2123000000000004e-05,2.23e-06,0.0,0 STARLINK-3947,1 52607U 22052K   22360.74439468  .00000223  00000-0  32123-4 0  9991,2 52607  53.2174 131.7170 0002399  53.2799 306.8414 15.08834766 34687,6917.896,95.438,541.4209999999998,538.102,0.0
52607.0,STARLINK-3947,PAYLOAD,2022-12-26 19:27:18,15.08828011,0.0002196,53.2173,131.4195,56.6785,303.4417,0.00014262,1.982e-05,0.0,0 STARLINK-3947,1 52607U 22052K   22360.81063514  .00001982  00000-0  14262-3 0  9990,2 52607  53.2173 131.4195 0002196  56.6785 303.4417 15.08828011 34319,6917.917,95.438,541.3009999999998,538.263,0.0
52607.0,STARLINK-3947,PAYLOAD,2022-12-27 01:48:50,15.08870865,0.0002309,53.2177,130.2304,57.6413,302.4803,-0.00028159,-4.771e-05,0.0,0 STARLINK-3947,1 52607U 22052K   22361.07558025 -.00004771  00000-0 -28159-3 0  9996,2 52607  53.2177 130.2304 0002309  57.6413 302.4803 15.08870865 34735,6917.786,95.436,541.248,538.054,0.0
52607.0,STARLINK-3947,PAYLOAD,2022-12-27 09:45:45,15.08847898,0.0002429,53.2178,128.7432,52.4583,307.6629,0.00019216,2.772e-05,0.0,0 STARLINK-3947,1 52607U 22052K   22361.40678048  .00002772  00000-0  19216-3 0  9992,2 52607  53.2178 128.7432 0002429  52.4583 307.6629 15.08847898 34782,6917.856,95.437,541.4019999999998,538.0409999999998,0.0
52607.0,STARLINK-3947,PAYLOAD,2022-12-28 09:36:32,15.08846977,0.0001262,53.2173,124.2835,86.7464,273.3672,6.0509e-05,6.75e-06,0.0,0 STARLINK-3947,1 52607U 22052K   22362.40037827  .00000675  00000-0  60509-4 0  9999,2 52607  53.2173 124.2835 0001262  86.7464 273.3672 15.08846977 34556,6917.859,95.437,540.597,538.851,0.0
52607.0,STARLINK-3947,PAYLOAD,2022-12-29 07:51:57,15.08833984,0.0001796,53.219,120.12,11.8968,348.2066,-7.569199999999999e-05,-1.492e-05,0.0,0 STARLINK-3947,1 52607U 22052K   22363.32775354 -.00001492  00000-0 -75692-4 0  9994,2 52607  53.2190 120.1200 0001796  11.8968 348.2066 15.08833984 35077,6917.899,95.438,541.006,538.521,0.0
52607.0,STARLINK-3947,PAYLOAD,2022-12-30 10:53:31,15.08829714,0.0001724,53.2197,115.0719,40.3136,319.7984,3.0656e-05,2e-06,0.0,0 STARLINK-3947,1 52607U 22052K   22364.45384052  .00000200  00000-0  30656-4 0  9995,2 52607  53.2197 115.0719 0001724  40.3136 319.7984 15.08829714 35244,6917.9119999999975,95.438,540.969,538.5840000000002,0.0
52607.0,STARLINK-3947,PAYLOAD,2022-12-30 14:04:17,15.08840036,0.0001849,53.218,114.4703,46.0313,314.0832,0.00016007,2.26e-05,0.0,0 STARLINK-3947,1 52607U 22052K   22364.58631016  .00002260  00000-0  16007-3 0  9995,2 52607  53.2180 114.4703 0001849  46.0313 314.0832 15.08840036 34889,6917.88,95.438,541.024,538.466,0.0
52607.0,STARLINK-3947,PAYLOAD,2022-12-30 17:15:03,15.08844033,0.0001889999999999,53.2176,113.8749,47.3921,312.723,0.00018679,2.686e-05,0.0,0 STARLINK-3947,1 52607U 22052K   22364.71878730  .00002686  00000-0  18679-3 0  9995,2 52607  53.2176 113.8749 0001890  47.3921 312.7230 15.08844033 35285,6917.868,95.437,541.0409999999998,538.4259999999998,0.0
52607.0,STARLINK-3947,PAYLOAD,2022-12-31 13:55:03,15.08849274,0.0001911999999999,53.2198,110.0103,31.5537,328.557,0.00024741,3.653e-05,0.0,0 STARLINK-3947,1 52607U 22052K   22365.57989676  .00003653  00000-0  24741-3 0  9994,2 52607  53.2198 110.0103 0001912  31.5537 328.5570 15.08849274 35032,6917.852,95.437,541.04,538.394,0.0
52607.0,STARLINK-3947,PAYLOAD,2022-12-31 17:05:49,15.08848018,0.0001911,53.2204,109.4161,29.9464,330.1638,0.00022167,3.242e-05,0.0,0 STARLINK-3947,1 52607U 22052K   22365.71237700  .00003242  00000-0  22167-3 0  9998,2 52607  53.2204 109.4161 0001911  29.9464 330.1638 15.08848018 35056,6917.856,95.437,541.043,538.399,0.0
52607.0,STARLINK-3947,PAYLOAD,2023-01-01 07:24:18,15.08843487,0.00021,53.2184,106.7385,43.1575,316.9581,-1.8623e-05,-5.85e-06,0.0,0 STARLINK-3947,1 52607U 22052K   23001.30854942 -.00000585  00000-0 -18623-4 0  9996,2 52607  53.2184 106.7385 0002100  43.1575 316.9581 15.08843487 35529,6917.87,95.437,541.187,538.2819999999998,0.0
52607.0,STARLINK-3947,PAYLOAD,2023-01-01 13:45:52,15.08823529,0.0002131999999999,53.219,105.5501,43.6467,316.4693,-0.00019602,-3.405e-05,0.0,0 STARLINK-3947,1 52607U 22052K   23001.57352767 -.00003405  00000-0 -19602-3 0  9994,2 52607  53.2190 105.5501 0002132  43.6467 316.4693 15.08823529 35189,6917.931,95.439,541.271,538.321,0.0
52607.0,STARLINK-3947,PAYLOAD,2023-01-01 16:56:39,15.08822052,0.0002039,53.2193,104.9558,39.1192,320.9947,-0.00020254,-3.509e-05,0.0,0 STARLINK-3947,1 52607U 22052K   23001.70600982 -.00003509  00000-0 -20254-3 0  9994,2 52607  53.2193 104.9558 0002039  39.1192 320.9947 15.08822052 35584,6917.935,95.439,541.211,538.39,0.0
52607.0,STARLINK-3947,PAYLOAD,2023-01-02 07:15:06,15.08832148,0.0002031,53.2182,102.279,32.7093,327.4024,-0.00012448,-2.268e-05,0.0,0 STARLINK-3947,1 52607U 22052K   23002.30216304 -.00002268  00000-0 -12448-3 0  9999,2 52607  53.2182 102.2790 0002031  32.7093 327.4024 15.08832148 35677,6917.904,95.438,541.174,538.364,0.0
52607.0,STARLINK-3947,PAYLOAD,2023-01-02 13:36:38,15.08838758,0.0002065,53.2186,101.0901,33.6672,326.4451,-5.3097e-05,-1.133e-05,0.0,0 STARLINK-3947,1 52607U 22052K   23002.56711748 -.00001133  00000-0 -53097-4 0  9995,2 52607  53.2186 101.0901 0002065  33.6672 326.4451 15.08838758 35331,6917.884,95.438,541.178,538.321,0.0
52607.0,STARLINK-3947,PAYLOAD,2023-01-02 16:47:25,15.08840573,0.0002098,53.2186,100.4952,34.434,325.6787,-2.8112e-05,-7.36e-06,0.0,0 STARLINK-3947,1 52607U 22052K   23002.69959633 -.00000736  00000-0 -28112-4 0  9994,2 52607  53.2186 100.4952 0002098  34.4340 325.6787 15.08840573 35732,6917.879,95.438,541.195,538.2919999999998,0.0
52607.0,STARLINK-3947,PAYLOAD,2023-01-03 07:05:53,15.08831089,0.0002096,53.2184,97.8188,32.8582,327.2541,0.00018722,2.692e-05,0.0,0 STARLINK-3947,1 52607U 22052K   23003.29576231  .00002692  00000-0  18722-3 0  9996,2 52607  53.2184  97.8188 0002096  32.8582 327.2541 15.08831089 35826,6917.908,95.438,541.2230000000002,538.323,0.0
52607.0,STARLINK-3947,PAYLOAD,2023-01-04 10:07:27,15.08842121,0.0002112,53.218,92.7641,32.1312,327.9808,0.0002149,3.134e-05,0.0,0 STARLINK-3947,1 52607U 22052K   23004.42184423  .00003134  00000-0  21490-3 0  9998,2 52607  53.2180  92.7641 0002112  32.1312 327.9808 15.08842121 35612,6917.874,95.437,541.2,538.278,0.0
52607.0,STARLINK-3947,PAYLOAD,2023-01-04 13:18:13,15.08848162,0.0002322,53.2183,92.169,34.4906,325.6237,0.00022531,3.3e-05,0.0,0 STARLINK-3947,1 52607U 22052K   23004.55432180  .00003300  00000-0  22531-3 0  9990,2 52607  53.2183  92.1690 0002322  34.4906 325.6237 15.08848162 36017,6917.855,95.437,541.327,538.114,0.0
52607.0,STARLINK-3947,PAYLOAD,2023-01-04 22:50:31,15.08862622,0.0002338,53.2183,90.3849,34.8161,325.2984,0.00038836,5.902e-05,0.0,0 STARLINK-3947,1 52607U 22052K   23004.95175248  .00005902  00000-0  38836-3 0  9998,2 52607  53.2183  90.3849 0002338  34.8161 325.2984 15.08862622 36075,6917.811,95.436,541.294,538.059,0.0
52607.0,STARLINK-3947,PAYLOAD,2023-01-05 11:33:35,15.08870526,0.0002194,53.2161,88.0058,32.205,327.9076,0.00054049,8.331e-05,0.0,0 STARLINK-3947,1 52607U 22052K   23005.48166400  .00008331  00000-0  54049-3 0  9990,2 52607  53.2161  88.0058 0002194  32.2050 327.9076 15.08870526 35775,6917.7869999999975,95.436,541.17,538.134,0.0
52607.0,STARLINK-3947,PAYLOAD,2023-01-05 14:44:21,15.08869546,0.0002129,53.2173,87.4116,29.0636,331.0475,0.00043861,6.705e-05,0.0,0 STARLINK-3947,1 52607U 22052K   23005.61414158  .00006705  00000-0  43861-3 0  9994,2 52607  53.2173  87.4116 0002129  29.0636 331.0475 15.08869546 35799,6917.79,95.436,541.128,538.182,0.0
52607.0,STARLINK-3947,PAYLOAD,2023-01-06 11:24:23,15.08816835,0.0002038,53.2174,83.5448,28.6168,331.4935,-0.00080427,-0.00013057,0.0,0 STARLINK-3947,1 52607U 22052K   23006.47527289 -.00013057  00000-0 -80427-3 0  9998,2 52607  53.2174  83.5448 0002038  28.6168 331.4935 15.08816835 36305,6917.951,95.439,541.226,538.406,0.0
52607.0,STARLINK-3947,PAYLOAD,2023-01-06 14:35:09,15.08815302,0.0002278,53.2179,82.9514,21.215,338.8936,-0.00066805,-0.00010898,0.0,0 STARLINK-3947,1 52607U 22052K   23006.60775459 -.00010898  00000-0 -66805-3 0  9991,2 52607  53.2179  82.9514 0002278  21.2150 338.8936 15.08815302 35942,6917.956,95.439,541.3969999999998,538.245,0.0
52607.0,STARLINK-3947,PAYLOAD,2023-01-07 04:53:38,15.0883314,0.0002048,53.2175,80.2763,10.6914,349.4122,0.0004153,6.326e-05,0.0,0 STARLINK-3947,1 52607U 22052K   23007.20391746  .00006326  00000-0  41530-3 0  9998,2 52607  53.2175  80.2763 0002048  10.6914 349.4122 15.08833140 36036,6917.901,95.438,541.183,538.35,0.0
52607.0,STARLINK-3947,PAYLOAD,2023-01-07 11:15:11,15.08844324,0.0002402,53.2168,79.0867,28.9834,331.1292,0.00087154,0.00013612,0.0,0 STARLINK-3947,1 52607U 22052K   23007.46887852  .00013612  00000-0  87154-3 0  9992,2 52607  53.2168  79.0867 0002402  28.9834 331.1292 15.08844324 36454,6917.866999999998,95.437,541.394,538.071,0.0
52607.0,STARLINK-3947,PAYLOAD,2023-01-07 14:25:57,15.08843471,0.0002347,53.2174,78.4913,27.2775,332.834,0.00082159,0.00012813,0.0,0 STARLINK-3947,1 52607U 22052K   23007.60135961  .00012813  00000-0  82159-3 0  9997,2 52607  53.2174  78.4913 0002347  27.2775 332.8340 15.08843471 36094,6917.87,95.437,541.3580000000002,538.111,0.0
52607.0,STARLINK-3947,PAYLOAD,2023-01-08 11:05:59,15.08827602,0.0002271,53.2186,74.6265,16.5387,343.5679,0.00012495,1.7e-05,0.0,0 STARLINK-3947,1 52607U 22052K   23008.46249326  .00001700  00000-0  12495-3 0  9992,2 52607  53.2186  74.6265 0002271  16.5387 343.5679 15.08827602 36600,6917.9180000000015,95.438,541.354,538.212,0.0
